{
  "norad_id": 47791,
  "name": "STARLINK-2322",
  "history": [
    {
      "epoch": "2026-04-14T04:45:41.455008Z",
      "apogee_km": 471.6356602556125,
      "perigee_km": 469.8670033328099,
      "latitude_deg": -2.7676529710206058e-05,
      "longitude_deg": 164.15638833798874,
      "height_km": 471.6606884469618,
      "semi_major_axis_km": 6848.888331794211,
      "eccentricity": 0.00012912,
      "inclination_deg": 53.1614,
      "raan_deg": 77.9574,
      "arg_perigee_deg": 90.685,
      "mean_anomaly_deg": 269.4299,
      "mean_motion_rev_day": 15.31696197
    },
    {
      "epoch": "2026-04-15T15:12:48.765600Z",
      "apogee_km": 471.7168802911656,
      "perigee_km": 469.7334498081673,
      "latitude_deg": -2.6575339441776474e-05,
      "longitude_deg": -0.7208637877102011,
      "height_km": 471.63915642081105,
      "semi_major_axis_km": 6848.862165049666,
      "eccentricity": 0.0001448,
      "inclination_deg": 53.1631,
      "raan_deg": 71.2755,
      "arg_perigee_deg": 90.8804,
      "mean_anomaly_deg": 269.2363,
      "mean_motion_rev_day": 15.31704975
    },
    {
      "epoch": "2026-04-16T14:42:13.535424Z",
      "apogee_km": 471.83223494312824,
      "perigee_km": 469.63100856809615,
      "latitude_deg": 1.3042007565450536e-05,
      "longitude_deg": 1.4045512144353576,
      "height_km": 471.72781569094667,
      "semi_major_axis_km": 6848.868621755612,
      "eccentricity": 0.0001607,
      "inclination_deg": 53.1613,
      "raan_deg": 66.7188,
      "arg_perigee_deg": 95.101,
      "mean_anomaly_deg": 265.0175,
      "mean_motion_rev_day": 15.31702809
    },
    {
      "epoch": "2026-04-17T14:11:37.539744Z",
      "apogee_km": 471.5784851447297,
      "perigee_km": 469.8810620035656,
      "latitude_deg": 2.514967729471873e-05,
      "longitude_deg": 3.5337435806506887,
      "height_km": 471.7154197894384,
      "semi_major_axis_km": 6848.866773574147,
      "eccentricity": 0.00012392,
      "inclination_deg": 53.1623,
      "raan_deg": 62.1627,
      "arg_perigee_deg": 95.8627,
      "mean_anomaly_deg": 264.2516,
      "mean_motion_rev_day": 15.31703429
    },
    {
      "epoch": "2026-04-18T13:41:01.938048Z",
      "apogee_km": 471.602288540681,
      "perigee_km": 469.8407621279648,
      "latitude_deg": -3.398971791316391e-05,
      "longitude_deg": 5.659135827345318,
      "height_km": 471.7788973614301,
      "semi_major_axis_km": 6848.858525334323,
      "eccentricity": 0.0001286,
      "inclination_deg": 53.1631,
      "raan_deg": 57.6045,
      "arg_perigee_deg": 100.3585,
      "mean_anomaly_deg": 259.7561,
      "mean_motion_rev_day": 15.31706196
    },
    {
      "epoch": "2026-04-19T13:10:26.046912Z",
      "apogee_km": 471.9737977947798,
      "perigee_km": 469.4602683646408,
      "latitude_deg": 1.9115636716450115e-05,
      "longitude_deg": 7.7850198317164985,
      "height_km": 471.25486635689003,
      "semi_major_axis_km": 6848.8540330797105,
      "eccentricity": 0.0001835,
      "inclination_deg": 53.1633,
      "raan_deg": 53.0455,
      "arg_perigee_deg": 73.3305,
      "mean_anomaly_deg": 286.7898,
      "mean_motion_rev_day": 15.31707703
    },
    {
      "epoch": "2026-04-20T12:39:51.594336Z",
      "apogee_km": 471.80012668337804,
      "perigee_km": 469.71847314198294,
      "latitude_deg": -1.5025099219207535e-06,
      "longitude_deg": 9.909937464206967,
      "height_km": 471.57907718610903,
      "semi_major_axis_km": 6848.896299912681,
      "eccentricity": 0.00015197,
      "inclination_deg": 53.1617,
      "raan_deg": 48.4916,
      "arg_perigee_deg": 85.6622,
      "mean_anomaly_deg": 274.4553,
      "mean_motion_rev_day": 15.31693524
    },
    {
      "epoch": "2026-04-21T19:59:04.656192Z",
      "apogee_km": 471.7304844680484,
      "perigee_km": 469.7621154076469,
      "latitude_deg": 2.260658854969664e-06,
      "longitude_deg": -107.254366165114,
      "height_km": 471.6140749765516,
      "semi_major_axis_km": 6848.883299937847,
      "eccentricity": 0.0001437,
      "inclination_deg": 53.1615,
      "raan_deg": 42.418,
      "arg_perigee_deg": 88.2057,
      "mean_anomaly_deg": 271.9109,
      "mean_motion_rev_day": 15.31697885
    }
  ]
}